[{"OBJECT_NAME":"STARLINK-32378","OBJECT_ID":"2024-164Q","EPOCH":"2026-03-09T08:08:08.193408","MEAN_MOTION":15.30186398,"ECCENTRICITY":0.00013675,"INCLINATION":53.1611,"RA_OF_ASC_NODE":92.7634,"ARG_OF_PERICENTER":57.5874,"MEAN_ANOMALY":302.5259,"EPHEMERIS_TYPE":0,"CLASSIFICATION_TYPE":"U","NORAD_CAT_ID":61064,"ELEMENT_SET_NO":999,"REV_AT_EPOCH":8342,"BSTAR":3.3370583e-5,"MEAN_MOTION_DOT":6.29e-6,"MEAN_MOTION_DDOT":0},{"OBJECT_NAME":"OBJECT F","OBJECT_ID":"2021-022F","EPOCH":"2026-03-09T23:37:37.165152","MEAN_MOTION":15.31317672,"ECCENTRICITY":0.00120882,"INCLINATION":97.3982,"RA_OF_ASC_NODE":329.8375,"ARG_OF_PERICENTER":85.9268,"MEAN_ANOMALY":274.3355,"EPHEMERIS_TYPE":0,"CLASSIFICATION_TYPE":"U","NORAD_CAT_ID":47937,"ELEMENT_SET_NO":999,"REV_AT_EPOCH":27452,"BSTAR":0.00038690553,"MEAN_MOTION_DOT":0.00011656,"MEAN_MOTION_DDOT":0}]
